{"type": "FeatureCollection", "name": "boundaries", "crs": {"type": "name", "properties": {"name": "urn:ogc:def:crs:OGC:1.3:CRS84"}}, "features": [{"type": "Feature", "properties": {"area_id": "A27", "county": "Garissa", "sub_county": "Balambala", "shapeName": "Balambala"}, "geometry": {"type": "Polygon", "coordinates": [[[39.58199592500006, 0.002040554000075], [39.42215552300007, 0.016965182000035], [39.42533017400007, 0.082611204000045], [39.43379582400007, 0.109675400000071], [39.430863231000046, 0.197935835000067], [39.36987351100004, 0.27630700800006], [39.34863383700008, 0.372252895000031], [39.300308234000056, 0.380450582000037], [39.256376173000035, 0.37797815700003], [39.24533683800007, 0.385507568000037], [39.22121455100006, 0.38194634000007], [39.19402246100003, 0.332293944000071], [39.191539471000056, 0.297961216000033], [39.18297448100003, 0.282537514000069], [39.155879937000066, 0.258002146000024], [39.11049945600007, 0.24637268400005], [39.055223246000025, 0.297701215000075], [39.00282404700005, 0.287464908000061], [38.96603153600006, 0.319693740000048], [38.91734381600003, 0.315345198000045], [38.86976419300004, 0.344536129000062], [38.84310137400007, 0.340328099000033], [38.82603645300003, 0.354462355000067], [38.78797016300007, 0.346748584000068], [38.71063305700005, 0.366364421000071], [38.75722630800004, 0.183811826000067], [38.75699297600005, 0.171413220000034], [38.73467254600007, 0.149073688000044], [38.72983423900007, 0.11928825800004], [38.730562846000055, 0.048894265000058], [38.74873002700008, -0.029682098999956], [38.77606582300007, -0.026247145999946], [38.83469770900007, -0.049283426999978], [38.88262176100005, -0.051585301999978], [38.91090393800005, -0.040189237999925], [38.93731594800005, -0.043714035999926], [38.95500182600006, -0.022834300999932], [38.981849683000064, -0.009309926999947], [39.072532643000045, -0.003082050999978], [39.09444426600004, -0.010728237999956], [39.157669069000065, -0.079454738999971], [39.19683838100008, -0.090633426999943], [39.23122406500005, -0.085446488999935], [39.26010894600006, -0.093092737999939], [39.32948683400008, -0.090646861999971], [39.40864944500004, -0.144769548999932], [39.45273589200008, -0.153029241999945], [39.527661324000064, -0.214538146999928], [39.54555413000003, -0.245172457999956], [39.58214188000005, -0.267706614999952], [39.59972191300005, -0.296857957999975], [39.626253131000055, -0.319194581999966], [39.62594344200005, -0.430959583999936], [39.673021181000024, -0.417947225999967], [39.865157526000075, -0.20566613699998], [40.00344746800005, -0.075473821999935], [39.89980235100006, -0.030682874999968], [39.87445805500005, -0.029744016999928], [39.82534814600007, 0.006553160000067], [39.81619955300005, -0.006456936999939], [39.78324881800006, -0.020376180999961], [39.756870606000064, -0.018877280999959], [39.711177967000026, -0.030490678999968], [39.65947960200003, -0.014833838999948], [39.62814012900003, -0.025553807999927], [39.615009308000026, -0.008966412999939], [39.58199592500006, 0.002040554000075]]]}}, {"type": "Feature", "properties": {"area_id": "A23", "county": "Garissa", "sub_county": "Dadaab", "shapeName": "Dadaab"}, "geometry": {"type": "Polygon", "coordinates": [[[40.00344746800005, -0.075473821999935], [40.02475077400004, -0.035869746999936], [40.06765077400007, -0.017069746999937], [40.211535817000026, -0.022038905999977], [40.257850774000076, -0.012069746999941], [40.34415077400007, 0.029430253000044], [40.36030077400005, 0.029330253000069], [40.37685077400005, 0.009530253000037], [40.42530077400005, -0.006969746999971], [40.49223475000008, -0.055109861999938], [40.508800774000065, -0.057269746999964], [40.52570077400003, -0.101219746999959], [40.569650774000024, -0.148069746999965], [40.59845077400007, -0.20681974699994], [40.659050774000036, -0.26176974699996], [40.815450774000055, -0.331769746999953], [40.90775077400008, -0.339169746999971], [40.99310077400003, -0.330769746999977], [40.99244717400006, 0.463301085000069], [40.91964717400003, 0.423751085000049], [40.88594717400008, 0.391251085000022], [40.858047174000035, 0.375951085000054], [40.77234717400006, 0.353651085000024], [40.73674717400007, 0.326251085000024], [40.71644717400005, 0.32015108500002], [40.68194717400007, 0.25765108500002], [40.64649717400005, 0.231201085000066], [40.61139717400005, 0.232151085000055], [40.58544717400008, 0.215251085000034], [40.535647174000076, 0.22715108500006], [40.50571641000005, 0.192874010000025], [40.496247174000075, 0.19715108500003], [40.475347174000035, 0.186151085000063], [40.42644717400003, 0.19005108500005], [40.405447174000074, 0.183551085000033], [40.37764717400006, 0.195951085000047], [40.331547174000036, 0.199251085000071], [40.248547174000066, 0.243051085000047], [40.16149717400003, 0.325801085000023], [40.062447174000056, 0.39095108500004], [39.97904717400007, 0.410251085000027], [39.913909741000055, 0.455927076000023], [39.90905679600007, 0.448542506000024], [39.893956796000055, 0.448792506000075], [39.88295679600003, 0.428342506000035], [39.84958650600004, 0.398487707000072], [39.887956796000026, 0.36469250600004], [39.90015679600003, 0.343192506000037], [39.90035679600004, 0.32004250600005], [39.87520679600004, 0.288842506000037], [39.75090679600004, 0.227242506000039], [39.72093083200008, 0.193286001000047], [39.66981916900005, 0.170183215000066], [39.653156796000076, 0.141542506000064], [39.595456796000065, 0.131692506000036], [39.58985679600005, 0.115342506000047], [39.57255679600007, 0.106242506000058], [39.556356796000046, 0.082742506000045], [39.53410679600006, 0.074642506000032], [39.511256796000055, 0.045342506000054], [39.50267133500006, 0.006304533000048], [39.58199592500006, 0.002040554000075], [39.615009308000026, -0.008966412999939], [39.62814012900003, -0.025553807999927], [39.65947960200003, -0.014833838999948], [39.711177967000026, -0.030490678999968], [39.756870606000064, -0.018877280999959], [39.78324881800006, -0.020376180999961], [39.81619955300005, -0.006456936999939], [39.82534814600007, 0.006553160000067], [39.87445805500005, -0.029744016999928], [39.89980235100006, -0.030682874999968], [40.00344746800005, -0.075473821999935]]]}}, {"type": "Feature", "properties": {"area_id": "A22", "county": "Garissa", "sub_county": "Garissa Township", "shapeName": "Dujis"}, "geometry": {"type": "Polygon", "coordinates": [[[39.62594344200005, -0.430959583999936], [39.62678270300006, -0.449088178999943], [39.63658725600004, -0.45895474699995], [39.63331219600008, -0.493049938999945], [39.69254442000005, -0.493139296999971], [39.72284451400003, -0.52554826599993], [39.72628567000004, -0.544813966999925], [39.75786891400003, -0.547226215999956], [39.81401949100007, -0.587386286999958], [39.831745684000055, -0.575751378999939], [39.87184568400005, -0.52525137899994], [39.89246078600007, -0.51717091699993], [39.86539568400008, -0.363001378999968], [39.813219900000036, -0.263357819999953], [39.673021181000024, -0.417947225999967], [39.62594344200005, -0.430959583999936]]]}}, {"type": "Feature", "properties": {"area_id": "A24", "county": "Garissa", "sub_county": "Fafi", "shapeName": "Fafi"}, "geometry": {"type": "Polygon", "coordinates": [[[39.813219900000036, -0.263357819999953], [39.86539568400008, -0.363001378999968], [39.89246078600007, -0.51717091699993], [39.87184568400005, -0.52525137899994], [39.831745684000055, -0.575751378999939], [39.81401949100007, -0.587386286999958], [39.82103501200004, -0.626909489999946], [39.839682512000024, -0.650757362999968], [39.85606528200003, -0.69269924699995], [39.86824485000005, -0.738993490999974], [39.86281975900005, -0.761123649999945], [39.90104000200006, -0.833547973999941], [39.903725880000025, -0.895538676999934], [39.937392156000044, -0.964233081999964], [39.93434812400005, -1.002789163999978], [40.01249167800006, -1.16350334699996], [40.03870043200004, -1.19943174399998], [40.056570210000075, -1.248580396999955], [40.049440074000074, -1.314675428999976], [40.060915022000074, -1.339094990999968], [40.08766080000004, -1.47621952999998], [40.103611312000055, -1.504482980999967], [40.13255025600006, -1.502245484999946], [40.17735025600007, -1.477395484999931], [40.15435025600004, -1.425295484999936], [40.20215025600004, -1.351595484999962], [40.327950256000065, -1.442995484999926], [40.374150256000064, -1.513695484999971], [40.42935025600008, -1.529845484999953], [40.45555025600004, -1.559145484999931], [40.50045025600008, -1.580195484999933], [40.51175025600003, -1.593995484999937], [40.57155025600008, -1.519695484999943], [40.660050256000034, -1.451645484999972], [40.68972001000003, -1.401713990999951], [40.71510025600003, -1.381495484999959], [40.71916599300005, -1.343348669999955], [40.74086078600004, -1.297670916999948], [40.76550025600005, -1.303945484999929], [40.79460025600008, -1.297645484999975], [40.77480064500003, -1.24647518699993], [40.803450256000076, -1.192845484999964], [40.91365025600004, -1.244245484999965], [40.92715025600006, -1.261545484999942], [40.928450256000076, -1.234745484999962], [40.986050256000055, -1.223695484999951], [41.004350256000066, -1.073245484999973], [40.95675025600008, -1.007145484999967], [40.93175025600004, -0.911695484999939], [40.888000256000055, -0.847495484999968], [40.99305025600006, -0.828945484999963], [40.99310077400003, -0.330769746999977], [40.90775077400008, -0.339169746999971], [40.815450774000055, -0.331769746999953], [40.659050774000036, -0.26176974699996], [40.59845077400007, -0.20681974699994], [40.569650774000024, -0.148069746999965], [40.52570077400003, -0.101219746999959], [40.508800774000065, -0.057269746999964], [40.49223475000008, -0.055109861999938], [40.42530077400005, -0.006969746999971], [40.37685077400005, 0.009530253000037], [40.36030077400005, 0.029330253000069], [40.34415077400007, 0.029430253000044], [40.257850774000076, -0.012069746999941], [40.211535817000026, -0.022038905999977], [40.06765077400007, -0.017069746999937], [40.02475077400004, -0.035869746999936], [39.99943666100006, -0.08155504299998], [39.813219900000036, -0.263357819999953]]]}}, {"type": "Feature", "properties": {"area_id": "A12", "county": "Nakuru", "sub_county": "Gilgil", "shapeName": "Gilgil"}, "geometry": {"type": "Polygon", "coordinates": [[[36.15642107600007, -0.31081980099998], [36.157175797000036, -0.319647865999968], [36.14342579700008, -0.32379786599995], [36.154075797000075, -0.363547865999976], [36.15557579700004, -0.448247865999974], [36.122975488000066, -0.448904632999927], [36.11597579700003, -0.473047865999945], [36.09537579700003, -0.487647865999975], [36.09657579700007, -0.496747865999964], [36.08217579700005, -0.500147865999963], [36.07447579700005, -0.490447865999954], [36.07817579700003, -0.524447865999946], [36.06687579700008, -0.530747865999956], [36.07287579700005, -0.554247865999969], [36.05457579700004, -0.560347865999972], [36.062675797000054, -0.587047865999978], [36.09537579700003, -0.634147865999978], [36.099886378000065, -0.673650947999931], [36.12447579700006, -0.658147865999979], [36.263675797000076, -0.659647865999943], [36.268175797000026, -0.650247865999972], [36.28122579700005, -0.663547865999931], [36.23087579700007, -0.680847865999965], [36.22817579700006, -0.709047865999935], [36.274025797000036, -0.742947865999952], [36.28197579700003, -0.72434786599996], [36.35142579700005, -0.723447865999958], [36.35167579700004, -0.713147865999929], [36.37147579700007, -0.704747865999934], [36.36727579700005, -0.684597865999933], [36.38472426100003, -0.66643813099995], [36.407775797000056, -0.659147865999955], [36.42037579700008, -0.634947865999948], [36.429475797000066, -0.634647865999966], [36.43447579700006, -0.670147865999979], [36.449675797000054, -0.683647865999944], [36.47747579700007, -0.68154786599996], [36.48970558700006, -0.622386775999928], [36.46801044800003, -0.624542070999951], [36.456249995000064, -0.610164798999961], [36.45146116500007, -0.563619702999972], [36.40326945000004, -0.57068647899996], [36.40544167000007, -0.522040472999947], [36.386992296000074, -0.460732747999941], [36.38608678200006, -0.425380964999931], [36.36020851200004, -0.376056834999929], [36.33430877300003, -0.386733957999979], [36.313869476000036, -0.383837908999965], [36.31114649800003, -0.366731914999946], [36.29297227400008, -0.371339703999979], [36.27578729800007, -0.390434046999928], [36.262999388000026, -0.340826928999945], [36.231965383000045, -0.341465368999934], [36.22872591600003, -0.351000377999981], [36.22125596500007, -0.326652163999938], [36.19437579700008, -0.33394786599996], [36.15642107600007, -0.31081980099998]]]}}, {"type": "Feature", "properties": {"area_id": "A25", "county": "Garissa", "sub_county": "Ijara", "shapeName": "Ijara"}, "geometry": {"type": "Polygon", "coordinates": [[[40.103611312000055, -1.504482980999967], [40.11682286700005, -1.556231996999941], [40.146817492000025, -1.591847136999945], [40.15671843500007, -1.619549810999956], [40.15783830500004, -1.694504402999939], [40.17064701600003, -1.725518866999948], [40.15780432500003, -1.762976345999959], [40.16283049400005, -1.821471214999974], [40.18681332600005, -1.861657542999978], [40.18652702900005, -1.960384673999954], [40.21217622300003, -2.035650818999954], [40.50027245100006, -1.906698649999953], [40.89270402600005, -1.716317020999952], [41.562439726000036, -1.657420052999953], [41.56223972600003, -1.597220052999944], [40.99305025600006, -0.828945484999963], [40.888000256000055, -0.847495484999968], [40.93175025600004, -0.911695484999939], [40.95675025600008, -1.007145484999967], [41.004350256000066, -1.073245484999973], [40.986050256000055, -1.223695484999951], [40.928450256000076, -1.234745484999962], [40.92715025600006, -1.261545484999942], [40.91365025600004, -1.244245484999965], [40.803450256000076, -1.192845484999964], [40.77480064500003, -1.24647518699993], [40.79460025600008, -1.297645484999975], [40.76550025600005, -1.303945484999929], [40.74086078600004, -1.297670916999948], [40.71916599300005, -1.343348669999955], [40.71510025600003, -1.381495484999959], [40.68972001000003, -1.401713990999951], [40.660050256000034, -1.451645484999972], [40.57155025600008, -1.519695484999943], [40.51175025600003, -1.593995484999937], [40.50045025600008, -1.580195484999933], [40.45555025600004, -1.559145484999931], [40.42935025600008, -1.529845484999953], [40.374150256000064, -1.513695484999971], [40.327950256000065, -1.442995484999926], [40.20215025600004, -1.351595484999962], [40.15435025600004, -1.425295484999936], [40.17735025600007, -1.477395484999931], [40.13255025600006, -1.502245484999946], [40.103611312000055, -1.504482980999967]]]}}, {"type": "Feature", "properties": {"area_id": "A19", "county": "Isiolo", "sub_county": "Isiolo North", "shapeName": "Isiolo North"}, "geometry": {"type": "MultiPolygon", "coordinates": [[[[37.55524762500005, 0.328564818000075], [37.58130836500004, 0.328717336000068], [37.60493087800006, 0.353758425000024], [37.59880065900006, 0.402910262000034], [37.58493805000006, 0.403033659000073], [37.58197689100007, 0.411374852000051], [37.586725235000074, 0.480473543000073], [37.82028503400005, 0.561025178000023], [38.062509918000046, 0.67123994800005], [38.06439971900005, 0.703846037000062], [38.08483886700003, 0.746027947000073], [38.08049410000007, 0.783750558000065], [38.05365217600007, 0.779231436000032], [38.015715890000024, 0.797420475000024], [38.01333339400003, 0.80566701500004], [37.972707867000054, 0.75631353700004], [37.94595609300006, 0.744938205000039], [37.91528187400007, 0.714214259000073], [37.87796556500007, 0.744781024000019], [37.874102322000056, 0.729675205000035], [37.84840813000005, 0.71530240900006], [37.84450908200006, 0.69134925700007], [37.83330186300003, 0.679987521000044], [37.79225584200003, 0.672038472000054], [37.74940472000003, 0.677322821000075], [37.72549875200008, 0.655585809000058], [37.70957579700007, 0.669052134000026], [37.69217021600008, 0.664832968000042], [37.68158232600007, 0.643472360000032], [37.63956149100005, 0.62282867700003], [37.63305672700005, 0.598078375000057], [37.617917857000066, 0.600973219000025], [37.58255767900005, 0.588867784000058], [37.579963907000035, 0.574133021000023], [37.55738775100008, 0.571680116000039], [37.54503936000003, 0.578852017000031], [37.53206858000004, 0.566833623000036], [37.50764377100006, 0.570534259000055], [37.490870983000036, 0.579754999000045], [37.49144115200005, 0.590156876000037], [37.47102346400004, 0.594177097000056], [37.44620694200006, 0.581699079000032], [37.392456055000025, 0.578004963000069], [37.36444855800005, 0.58884598800006], [37.342180477000056, 0.647128518000045], [37.32589073100007, 0.660237481000024], [37.29980128400007, 0.721681137000076], [37.25695017800007, 0.764411216000042], [37.24547238400004, 0.763261993000071], [37.218767900000046, 0.740394938000065], [37.19981448200008, 0.74714840200005], [37.16520634400007, 0.743801733000055], [37.15001163900007, 0.760922785000048], [37.134367302000044, 0.759951698000066], [37.123209161000034, 0.777523575000032], [37.10243751500008, 0.787608373000069], [37.070411990000025, 0.778435290000061], [37.06903109500007, 0.766846558000054], [37.05832961800007, 0.77276262700002], [36.98050987200003, 0.745608433000029], [36.94809686100007, 0.744538442000021], [36.93494230500005, 0.754054730000064], [36.92206764300005, 0.661994309000022], [36.91333198600006, 0.662336946000039], [36.907597542000076, 0.632379532000073], [36.89722633400004, 0.631146967000063], [36.88804245000006, 0.610453586000062], [36.86758677100005, 0.597864628000025], [36.863765717000035, 0.572018921000051], [37.36885547600008, 0.512456715000042], [37.359621048000065, 0.502207905000034], [37.36019058200003, 0.477544493000039], [37.34864311200005, 0.44371628500005], [37.353278024000076, 0.414452374000064], [37.37907123600007, 0.380492705000052], [37.379089356000065, 0.364674211000022], [37.39194488500004, 0.355441943000073], [37.39556217200004, 0.302358531000039], [37.38534593600008, 0.276897226000074], [37.37371139500004, 0.271288681000044], [37.37922954600003, 0.270282529000042], [37.399009705000026, 0.283991188000073], [37.40069770900004, 0.296319321000055], [37.429996490000065, 0.298004240000068], [37.53598022500006, 0.26366269600004], [37.54774856600005, 0.282102590000022], [37.55086231300004, 0.321709007000038], [37.55524762500005, 0.328564818000075]]], [[[38.961545184000045, 2.099456261000057], [38.38400077800003, 1.76146441700007], [38.34120178200004, 1.577994704000048], [37.94630244200005, 1.26343046300002], [37.949182015000076, 1.194240690000072], [38.03264171400008, 1.085485238000047], [38.04684347700004, 0.805623032000028], [38.08049410000007, 0.783750558000065], [38.08635521000008, 0.803143919000036], [38.11946106000005, 0.81966927700006], [38.142601013000046, 0.809336469000073], [38.16077423100006, 0.825695247000056], [38.195877075000055, 0.825201511000046], [38.21161651600005, 0.834029317000045], [38.245018006000066, 0.833250046000046], [38.258296967000035, 0.82456499400007], [38.265808105000076, 0.831114471000035], [38.28668403700004, 0.823595375000025], [38.310018540000044, 0.826016486000071], [38.32355117800006, 0.843384564000075], [38.332046509000065, 0.836349279000046], [38.34625434900005, 0.839936316000035], [38.357645035000075, 0.829865247000043], [38.37012481700003, 0.855004102000066], [38.381526947000054, 0.845361332000039], [38.39212417600004, 0.850441486000022], [38.39368820200008, 0.865301251000062], [38.44882202100007, 0.864397049000047], [38.453115464000064, 0.870173186000045], [38.47359085100004, 0.864920497000071], [38.48505401600005, 0.878037274000064], [38.51117706300005, 0.864385545000061], [38.53007125900007, 0.913951159000021], [38.54631424000007, 0.920350432000021], [38.55843353300003, 0.938374281000051], [38.56596756000005, 0.962683797000068], [38.563278198000035, 0.992029369000022], [38.577764511000055, 1.024625957000069], [38.58756256100003, 1.027742982000063], [38.62524032600004, 1.01482552300007], [38.654510498000036, 1.023816903000068], [38.66082000700004, 1.042471886000044], [38.696107865000045, 1.07270687800002], [38.71979141300005, 1.072388649000061], [38.72386932400008, 1.092612744000064], [38.732155800000044, 1.098255038000048], [38.72880745000003, 1.105866373000026], [38.742919922000056, 1.10662579500007], [38.744123459000036, 1.125599027000021], [38.75719451900005, 1.141062776000069], [38.77442836800003, 1.143566966000037], [38.77865600600006, 1.153432787000042], [38.81428718600006, 1.168816984000046], [38.82150077800003, 1.181769192000047], [38.85706806200005, 1.191709370000069], [38.85843467700005, 1.19958269600005], [38.908710480000025, 1.189726651000058], [38.92537117000006, 1.204237700000022], [38.94126510600006, 1.191718936000029], [38.977153143000066, 1.210846682000067], [38.999464035000074, 1.209572733000073], [39.03995132400007, 1.201370716000042], [39.066093445000035, 1.185224533000053], [39.11559677100007, 1.178491235000024], [39.121265411000024, 1.170177698000032], [39.13724136400003, 1.170796037000059], [39.160911560000045, 1.141664147000029], [39.17623138400006, 1.134793401000024], [39.18741417000007, 1.10794609800007], [39.30127906800004, 1.094960392000075], [39.347209930000076, 1.064368486000035], [39.39334869400005, 1.053615808000075], [39.461921811000025, 0.995885165000061], [39.277278900000056, 1.472259522000058], [39.44708252000004, 1.535278320000032], [39.39769744900008, 1.563450992000071], [39.34233600500005, 1.640155733000029], [39.31013816400008, 1.65809151600007], [39.30725455900006, 1.66848651600003], [39.20444488500004, 1.715451062000056], [39.129094491000046, 1.873721015000058], [39.05995932600007, 1.927015041000061], [39.05773368300004, 1.940908347000061], [39.03015916700008, 1.978034016000038], [38.99351120000006, 2.007366896000065], [38.984775453000054, 2.070393112000033], [38.961545184000045, 2.099456261000057]]]]}}, {"type": "Feature", "properties": {"area_id": "A20", "county": "Isiolo", "sub_county": "Isiolo South", "shapeName": "Isiolo South"}, "geometry": {"type": "Polygon", "coordinates": [[[38.75722630800004, 0.183811826000067], [38.67698239300006, 0.494958311000062], [38.661563873000034, 0.510724306000043], [38.70376349900005, 0.50793249700007], [38.72196579000007, 0.513394296000058], [38.723200037000026, 0.526071198000068], [38.73503481400007, 0.520169172000067], [38.749871650000046, 0.52510206200003], [38.76586477700005, 0.513426220000042], [38.824894544000074, 0.581257002000029], [38.85774679800005, 0.59937164300004], [38.91123926100005, 0.599842408000029], [38.94075079900006, 0.628409499000043], [39.01019066600003, 0.625220906000038], [39.02687600300004, 0.664966294000067], [39.05366941600005, 0.686088584000061], [39.083951900000045, 0.676933634000022], [39.102473522000025, 0.689375641000026], [39.14216948500007, 0.691177668000023], [39.14783849600008, 0.706003217000045], [39.177762459000064, 0.725566179000054], [39.18056313400007, 0.751749675000042], [39.23707021600006, 0.844155692000072], [39.31359717600003, 0.924772075000021], [39.36126042400008, 0.953948779000029], [39.461921811000025, 0.995885165000061], [39.39334869400005, 1.053615808000075], [39.347209930000076, 1.064368486000035], [39.30127906800004, 1.094960392000075], [39.18741417000007, 1.10794609800007], [39.17623138400006, 1.134793401000024], [39.160911560000045, 1.141664147000029], [39.13724136400003, 1.170796037000059], [39.121265411000024, 1.170177698000032], [39.11559677100007, 1.178491235000024], [39.066093445000035, 1.185224533000053], [39.03995132400007, 1.201370716000042], [38.999464035000074, 1.209572733000073], [38.977153143000066, 1.210846682000067], [38.94126510600006, 1.191718936000029], [38.92537117000006, 1.204237700000022], [38.908710480000025, 1.189726651000058], [38.85843467700005, 1.19958269600005], [38.85706806200005, 1.191709370000069], [38.82150077800003, 1.181769192000047], [38.81428718600006, 1.168816984000046], [38.77865600600006, 1.153432787000042], [38.77442836800003, 1.143566966000037], [38.75719451900005, 1.141062776000069], [38.744123459000036, 1.125599027000021], [38.742919922000056, 1.10662579500007], [38.72880745000003, 1.105866373000026], [38.732155800000044, 1.098255038000048], [38.72386932400008, 1.092612744000064], [38.71979141300005, 1.072388649000061], [38.696107865000045, 1.07270687800002], [38.66082000700004, 1.042471886000044], [38.654510498000036, 1.023816903000068], [38.62524032600004, 1.01482552300007], [38.58756256100003, 1.027742982000063], [38.577764511000055, 1.024625957000069], [38.563278198000035, 0.992029369000022], [38.56596756000005, 0.962683797000068], [38.55843353300003, 0.938374281000051], [38.54631424000007, 0.920350432000021], [38.53007125900007, 0.913951159000021], [38.51117706300005, 0.864385545000061], [38.48505401600005, 0.878037274000064], [38.47359085100004, 0.864920497000071], [38.40843582100007, 0.868519426000034], [38.39368820200008, 0.865301251000062], [38.38884735100004, 0.847514749000027], [38.37012481700003, 0.855004102000066], [38.357645035000075, 0.829865247000043], [38.34625434900005, 0.839936316000035], [38.332046509000065, 0.836349279000046], [38.32355117800006, 0.843384564000075], [38.310018540000044, 0.826016486000071], [38.28668403700004, 0.823595375000025], [38.21161651600005, 0.834029317000045], [38.195877075000055, 0.825201511000046], [38.16077423100006, 0.825695247000056], [38.142601013000046, 0.809336469000073], [38.11946106000005, 0.81966927700006], [38.08635521000008, 0.803143919000036], [38.07851886700007, 0.77695499400005], [38.08483886700003, 0.746027947000073], [38.06439971900005, 0.703846037000062], [38.062509918000046, 0.67123994800005], [38.176361084000064, 0.330779225000072], [38.195583344000056, 0.321996778000027], [38.19155883800005, 0.235207781000042], [38.19883728000008, 0.225215681000066], [38.24520619700007, 0.206317852000041], [38.296386719000054, 0.159646035000037], [38.30862808200004, 0.109139167000023], [38.327508926000064, 0.095973659000038], [38.32402801500007, 0.075321093000071], [38.34897486400007, 0.06039609100003], [38.34349060100004, 0.044928750000054], [38.357204437000064, 0.037809677000041], [38.356025696000074, 0.02049854400002], [38.40168126400005, -0.016606751999973], [38.41363678000005, -0.051991957999974], [38.410379410000075, -0.063803955999958], [38.42670345800008, -0.075514790999932], [38.437434076000045, -0.072015637999925], [38.45701695300005, -0.086491767999973], [38.48286651900003, -0.076033527999925], [38.49152566200007, -0.05887815899996], [38.520715720000055, -0.062790395999968], [38.53091765000005, -0.054894248999972], [38.53012328900007, -0.043940493999969], [38.54008631200003, -0.04452110699998], [38.55371569400006, -0.017065958999979], [38.59898757500008, -0.033935758999974], [38.61069727300003, -0.029812087999971], [38.638728170000036, -0.054696511999964], [38.65507220300003, -0.046487080999952], [38.68243121200004, -0.055102369999929], [38.688076402000036, -0.040707761999954], [38.71256780900006, -0.062280444999942], [38.74917505600007, -0.072841279999977], [38.76638014900004, -0.068922616999942], [38.75972144600007, -0.063402713999949], [38.76472637400008, -0.054973960999973], [38.751117083000054, -0.046893219999959], [38.729022980000025, 0.066486582000039], [38.73467254600007, 0.149073688000044], [38.75699297600005, 0.171413220000034], [38.75722630800004, 0.183811826000067]]]}}, {"type": "Feature", "properties": {"area_id": "A06", "county": "Kajiado", "sub_county": "Kajiado Central", "shapeName": "Kajiado Central"}, "geometry": {"type": "Polygon", "coordinates": [[[36.827014923000036, -1.772550224999975], [36.71733093300003, -1.759695052999973], [36.67471694900007, -1.740863680999951], [36.65732574500004, -1.82568871999996], [36.66200637800006, -1.85682630499997], [36.71393203700006, -1.91239201999997], [36.738407135000045, -1.927039384999944], [36.74332237300007, -1.938426553999932], [36.73001670800005, -1.970696746999977], [36.73549461400006, -1.989118158999929], [36.636463165000066, -2.064508914999976], [36.515735627000026, -2.137929677999978], [36.44960403400006, -2.218827723999937], [36.438064575000055, -2.23506224199997], [36.493087769000056, -2.306004046999931], [36.443527188000076, -2.354097298999932], [36.901604450000036, -2.610562719999962], [36.91621017500006, -2.554990291999957], [36.93675613400006, -2.546069859999932], [36.98996734600007, -2.470701693999956], [37.043533325000055, -2.519882916999961], [37.053649902000075, -2.403372287999957], [37.086868286000026, -2.268193244999964], [37.11719703700004, -2.220620869999948], [37.18695314800004, -2.18543275199994], [37.165073395000036, -2.186759709999933], [37.15131759600007, -2.179052829999932], [37.14241409300007, -2.13878154799994], [37.10162162800003, -2.083757519999949], [37.113638878000074, -2.066419302999975], [37.10895347600007, -2.045521079999958], [37.080816269000024, -2.040688633999935], [37.06722720500005, -2.001390933999971], [37.05163860300007, -1.99639749499994], [37.042846680000025, -1.982699274999959], [37.04835891700003, -1.965100913999947], [37.03066063000006, -1.949915646999955], [37.02976608300003, -1.897592742999962], [36.97836430900003, -1.873913764999941], [36.97415971800007, -1.859670862999963], [36.92342567400004, -1.852481513999976], [36.90899658200004, -1.827931045999946], [36.87981414800004, -1.827999948999945], [36.84163284300007, -1.814842819999967], [36.828163147000055, -1.79222488399995], [36.827014923000036, -1.772550224999975]]]}}, {"type": "Feature", "properties": {"area_id": "A08", "county": "Kajiado", "sub_county": "Kajiado East", "shapeName": "Kajiado East"}, "geometry": {"type": "Polygon", "coordinates": [[[37.18695314800004, -2.18543275199994], [37.207317353000064, -2.205788134999978], [37.27449035700005, -2.206215977999932], [37.33953730300004, -2.237925727999936], [37.359588623000036, -2.274852752999948], [37.377574921000075, -2.335265874999948], [37.40519332900004, -2.349683522999953], [37.451129913000045, -2.394970654999952], [37.51293945300006, -2.402458190999937], [37.52579371200005, -2.398937065999974], [37.54137420700005, -2.378305553999951], [37.570922852000024, -2.384435414999928], [37.61872863800005, -2.369214057999955], [37.64698638900006, -2.370062493999967], [37.59635257700006, -2.311685144999956], [37.61218261700003, -2.297707437999975], [37.62236213700004, -2.30416428999996], [37.63209915200008, -2.294010717999925], [37.64591217000003, -2.299156267999933], [37.655278778000024, -2.287476777999927], [37.670047760000045, -2.287718851999955], [37.67849222800004, -2.264410177999935], [37.67492421500003, -2.228000878999978], [37.706096649000074, -2.194535970999937], [37.72434616100003, -2.19064187999993], [37.707451820000074, -2.181402265999964], [37.70009613000008, -2.164803742999936], [37.66379356400006, -2.15534269799997], [37.61955642700008, -2.160894393999968], [37.59254074100005, -2.152803897999945], [37.56476783800008, -2.12692904499994], [37.54428863500004, -2.124387621999972], [37.533622742000034, -2.105777501999967], [37.47862243700007, -2.083870648999948], [37.475868225000056, -2.090808152999955], [37.46251651600005, -2.085195212999963], [37.46507644700006, -2.078796863999969], [37.38211441100003, -2.022515057999954], [37.280139923000036, -1.993694424999944], [37.26581192000003, -1.958351015999938], [37.25540733400004, -1.956664382999975], [37.236072541000055, -1.935212671999977], [37.186635971000044, -1.933027018999951], [37.15301513700007, -1.885814706999952], [37.160482407000075, -1.882252543999925], [37.16234874700007, -1.856790522999972], [37.141906738000046, -1.838506012999972], [37.148731232000046, -1.830855726999971], [37.14128875700004, -1.811560630999963], [37.16040166300007, -1.779193877999944], [37.152022044000034, -1.77604512399995], [37.15845362300007, -1.763791957999956], [37.148553467000056, -1.758267044999968], [37.147455216000026, -1.737498938999977], [37.13222443800004, -1.742475662999937], [37.111644745000035, -1.733260809999933], [37.006481171000075, -1.592714309999963], [37.000389099000074, -1.597291469999959], [36.99082946800007, -1.584927796999978], [36.99595642100007, -1.580977320999978], [36.977630615000066, -1.553071975999956], [36.96617889400005, -1.553345083999943], [36.95718765300006, -1.542334317999973], [36.97762298600003, -1.474849223999968], [36.93687311800005, -1.452840685999945], [36.884166718000074, -1.484693765999964], [36.878297806000035, -1.475586592999946], [36.89487711600003, -1.409195939999961], [36.863632202000076, -1.401655971999958], [36.84346580500005, -1.384384691999969], [36.81996112400003, -1.381028089999973], [36.81970596300005, -1.388183831999925], [36.80294990600004, -1.389607786999932], [36.78449058500007, -1.40520042199995], [36.722329140000056, -1.423144071999957], [36.71767861500007, -1.430004851999968], [36.79820633000003, -1.561789094999938], [36.795575142000075, -1.574081479999961], [36.80511856100003, -1.589692472999957], [36.83848953200004, -1.741528272999972], [36.827014923000036, -1.772550224999975], [36.828163147000055, -1.79222488399995], [36.84163284300007, -1.814842819999967], [36.87981414800004, -1.827999948999945], [36.90899658200004, -1.827931045999946], [36.92342567400004, -1.852481513999976], [36.97415971800007, -1.859670862999963], [36.97836430900003, -1.873913764999941], [37.02976608300003, -1.897592742999962], [37.03066063000006, -1.949915646999955], [37.04835891700003, -1.965100913999947], [37.042846680000025, -1.982699274999959], [37.05163860300007, -1.99639749499994], [37.06722720500005, -2.001390933999971], [37.080816269000024, -2.040688633999935], [37.10895347600007, -2.045521079999958], [37.113638878000074, -2.066419302999975], [37.10162162800003, -2.083757519999949], [37.14241409300007, -2.13878154799994], [37.15131759600007, -2.179052829999932], [37.165073395000036, -2.186759709999933], [37.18695314800004, -2.18543275199994]]]}}, {"type": "Feature", "properties": {"area_id": "A07", "county": "Kajiado", "sub_county": "Kajiado North", "shapeName": "Kajiado North"}, "geometry": {"type": "Polygon", "coordinates": [[[36.81996112400003, -1.381028089999973], [36.78268623400004, -1.386766850999948], [36.741531372000054, -1.379435419999936], [36.70219421400003, -1.349484920999942], [36.69280242900004, -1.350649356999952], [36.67888641400003, -1.325982689999933], [36.66347503700007, -1.31728506099995], [36.65970611600005, -1.300525783999944], [36.64836883500004, -1.298404097999935], [36.63909530600006, -1.33332741299995], [36.65281486500004, -1.35581594699994], [36.64673233000008, -1.364668011999925], [36.62841415400004, -1.367529153999953], [36.63755798300008, -1.385441779999951], [36.635902405000024, -1.405643939999948], [36.68653869600007, -1.398840486999973], [36.68935108200003, -1.44085496699995], [36.76628112800006, -1.405879377999952], [36.78449058500007, -1.40520042199995], [36.80294990600004, -1.389607786999932], [36.81970596300005, -1.388183831999925], [36.81996112400003, -1.381028089999973]]]}}, {"type": "Feature", "properties": {"area_id": "A10", "county": "Kajiado", "sub_county": "Loitokitok", "shapeName": "Kajiado South"}, "geometry": {"type": "Polygon", "coordinates": [[[36.901604450000036, -2.610562719999962], [37.50391001300005, -2.948265852999953], [37.67188471700007, -3.058744783999941], [37.69207144200004, -3.175103271999944], [37.79427629500003, -3.173853796999936], [37.80439027800003, -3.167497491999939], [37.83319977800005, -3.186841780999941], [37.85303589500006, -3.180014138999979], [37.85447589900008, -3.080026464999946], [37.87062455600005, -3.077520242999981], [37.89438246200007, -2.885697127999947], [37.91787338300003, -2.868433671999981], [37.937362439000026, -2.770810601999926], [37.926251412000056, -2.749073743999929], [37.93011856100003, -2.722549676999961], [37.92097663900006, -2.704385756999955], [37.90110397300003, -2.701521396999965], [37.84973907500006, -2.603888272999939], [37.64698638900006, -2.370062493999967], [37.61872863800005, -2.369214057999955], [37.570922852000024, -2.384435414999928], [37.54137420700005, -2.378305553999951], [37.519060135000075, -2.402382373999956], [37.451129913000045, -2.394970654999952], [37.40519332900004, -2.349683522999953], [37.377574921000075, -2.335265874999948], [37.359588623000036, -2.274852752999948], [37.33953730300004, -2.237925727999936], [37.27449035700005, -2.206215977999932], [37.207317353000064, -2.205788134999978], [37.18695314800004, -2.18543275199994], [37.11719703700004, -2.220620869999948], [37.086868286000026, -2.268193244999964], [37.053649902000075, -2.403372287999957], [37.043533325000055, -2.519882916999961], [36.98996734600007, -2.470701693999956], [36.93675613400006, -2.546069859999932], [36.91621017500006, -2.554990291999957], [36.901604450000036, -2.610562719999962]]]}}, {"type": "Feature", "properties": {"area_id": "A09", "county": "Kajiado", "sub_county": "Kajiado West", "shapeName": "Kajiado West"}, "geometry": {"type": "Polygon", "coordinates": [[[36.827014923000036, -1.772550224999975], [36.83848953200004, -1.741528272999972], [36.80511856100003, -1.589692472999957], [36.795575142000075, -1.574081479999961], [36.79820633000003, -1.561789094999938], [36.78478050200005, -1.535903154999971], [36.71767861500007, -1.430004851999968], [36.68935108200003, -1.44085496699995], [36.68400192300004, -1.433784285999934], [36.68653869600007, -1.398840486999973], [36.635902405000024, -1.405643939999948], [36.63755798300008, -1.385441779999951], [36.62841415400004, -1.367529153999953], [36.64673233000008, -1.364668011999925], [36.65281486500004, -1.35581594699994], [36.63909530600006, -1.33332741299995], [36.64836883500004, -1.298404097999935], [36.490814209000064, -1.267989515999943], [36.512621307000074, -1.239572428999963], [36.53675378300005, -1.152578333999941], [36.49320133100008, -1.119001706999939], [36.33147371700005, -1.037254646999941], [36.347740173000034, -1.172504186999959], [36.04916000400004, -1.489948987999981], [36.05869865500006, -1.496090352999943], [36.086210305000066, -1.573442264999926], [36.06506185400008, -1.613053640999965], [36.05249977100004, -1.616361438999945], [36.05920904900006, -1.622475702999964], [36.04618285400005, -1.650220636999961], [36.06493317600007, -1.696509741999932], [36.05532455500003, -1.70759391799993], [36.04801750200005, -1.702318905999959], [36.042935372000045, -1.708683937999979], [36.04869979700004, -1.728965109999933], [36.03555806500003, -1.740453321999951], [36.035619100000076, -1.760754942999938], [36.03056716900005, -1.758182465999937], [36.019943237000064, -1.774488090999967], [36.03063570100005, -1.780644024999958], [36.01659620800007, -1.807049421999977], [36.028186815000026, -1.809626881999975], [36.02970848000007, -1.826090652999937], [36.03770885800003, -1.820824897999955], [36.043236415000024, -1.828559358999939], [36.05133311000003, -1.869248727999945], [36.036523819000024, -1.877675532999945], [36.035375378000026, -1.892428615999961], [36.03195190400004, -1.885854005999931], [36.025804520000065, -1.889120220999928], [36.04326629600007, -1.904610692999938], [36.03063011200004, -1.91347867199994], [36.042391844000065, -1.936645437999971], [36.036062241000025, -1.947284876999959], [36.04111794200003, -1.957993699999975], [36.03614578200006, -2.004312467999966], [36.02095985400007, -2.035453468999947], [36.02666091900005, -2.08206415199993], [36.00013732900004, -2.081845878999957], [36.00013299500006, -2.10458073999996], [36.443527188000076, -2.354097298999932], [36.493087769000056, -2.306004046999931], [36.438064575000055, -2.23506224199997], [36.44960403400006, -2.218827723999937], [36.515735627000026, -2.137929677999978], [36.636463165000066, -2.064508914999976], [36.73549461400006, -1.989118158999929], [36.73001670800005, -1.970696746999977], [36.74332237300007, -1.938426553999932], [36.738407135000045, -1.927039384999944], [36.71393203700006, -1.91239201999997], [36.66200637800006, -1.85682630499997], [36.65732574500004, -1.82568871999996], [36.67471694900007, -1.740863680999951], [36.71733093300003, -1.759695052999973], [36.827014923000036, -1.772550224999975]]]}}, {"type": "Feature", "properties": {"area_id": "A04", "county": "Narok", "sub_county": "Transmara West", "shapeName": "Kilgoris"}, "geometry": {"type": "Polygon", "coordinates": [[[34.590065899000024, -1.016203936999943], [34.592965899000035, -1.041803936999941], [34.61896182300006, -1.07750443499998], [34.61522724200006, -1.090117004999968], [34.63339209700007, -1.138239096999939], [34.62489938900006, -1.15468107099997], [34.65396589900007, -1.176603936999925], [34.67356589900004, -1.209703936999972], [34.68706589900006, -1.21100393699993], [34.730927619000056, -1.388869548999935], [35.02286464500003, -1.548271449999959], [35.02501577800007, -1.520443385999954], [35.01627265400003, -1.517279908999967], [35.03680639500004, -1.491775076999943], [35.03298812700007, -1.465512667999974], [35.042640378000044, -1.464879202999953], [35.04531490000005, -1.450293658999954], [35.05876293600005, -1.44987490699998], [35.063849823000055, -1.433574114999942], [35.053452278000066, -1.429162719999965], [35.04820841900005, -1.405387979999944], [35.022374383000056, -1.389971686999957], [35.01763519900004, -1.378329243999929], [34.99874043700004, -1.377112459999978], [34.989317147000065, -1.341361338999945], [34.996612766000055, -1.332810632999951], [34.99276734500006, -1.326001022999947], [35.028589124000064, -1.318079499999953], [35.04102153200006, -1.294603176999942], [35.03469935600003, -1.288719648999972], [35.043301443000075, -1.269059278999976], [35.03177264000004, -1.251529084999959], [35.03982078900003, -1.238609428999951], [35.03355324300003, -1.229943550999963], [35.036740801000064, -1.213448748999951], [35.08378883700004, -1.158519694999939], [35.09445804500007, -1.155124868999962], [35.09640759300004, -1.139526960999945], [35.10856318200007, -1.148838219999959], [35.11531801800004, -1.139010747999976], [35.140562067000076, -1.139878124999939], [35.15981541300005, -1.125531942999942], [35.15974272600005, -1.112785808999945], [35.17687595700005, -1.101393220999967], [35.17081684500005, -1.08887244999994], [35.176255543000025, -1.077067737999926], [35.19158566400006, -1.080282288999967], [35.20317961600006, -1.096308877999945], [35.21411741500003, -1.090674029999946], [35.20991433800003, -1.08353826299998], [35.21914003200004, -1.062446762999969], [35.23178777800007, -1.05919552499995], [35.23117325800007, -1.041864355999962], [35.23824610100007, -1.048107053999956], [35.24859491700005, -1.032878438999944], [35.23867416400003, -1.033726334999926], [35.22063338400005, -1.017807562999963], [35.187349063000056, -1.032343336999929], [35.17862613400007, -1.053631430999928], [35.14808648600007, -1.032308349999937], [35.11827137000006, -1.081375959999946], [35.142292379000025, -1.09241596399994], [35.11638584100007, -1.120659104999959], [35.11519931200007, -1.106130491999977], [35.09607998900003, -1.091018850999944], [35.08294213000005, -1.096457616999942], [35.06916363800008, -1.088245756999925], [35.074541199000066, -1.083000575999961], [35.04402080400007, -1.07460208599997], [35.03007175300007, -1.04739277799996], [34.98274078000003, -1.037848782999959], [34.98747924300005, -1.02561127499996], [34.999954063000075, -1.028298845999927], [35.026179660000025, -1.001708870999948], [35.024571208000054, -0.994701526999961], [35.03531350000003, -0.991933993999965], [35.02364784700006, -0.95906193999997], [34.99517873900004, -0.927269791999947], [34.99010865300005, -0.893332903999976], [34.67876589900004, -0.971003936999978], [34.648965899000075, -0.963303936999978], [34.590065899000024, -1.016203936999943]]]}}, {"type": "Feature", "properties": {"area_id": "A13", "county": "Nakuru", "sub_county": "Kuresoi North", "shapeName": "Kuresoi North"}, "geometry": {"type": "Polygon", "coordinates": [[[35.41388658200003, -0.300927244999968], [35.50942579700006, -0.453947865999965], [35.56587579700005, -0.387547865999977], [35.57647579700006, -0.41124786599994], [35.61116150400005, -0.399480360999974], [35.632875797000054, -0.410347865999938], [35.63877579700005, -0.423597865999966], [35.67277579700004, -0.407247865999977], [35.69937579700007, -0.410547865999945], [35.72704246400008, -0.387814531999936], [35.68337579700005, -0.315347865999968], [35.696275797000055, -0.281647865999958], [35.71717579700004, -0.259847865999973], [35.73797579700005, -0.255147865999959], [35.72517579700008, -0.238847865999958], [35.71777579700006, -0.246347865999951], [35.701975797000046, -0.242747865999945], [35.69157579700004, -0.223647865999965], [35.70197007200005, -0.208691582999961], [35.723977459000025, -0.203110219999928], [35.729875797000034, -0.155247865999968], [35.693375797000044, -0.106947865999928], [35.68897579700007, -0.072447865999948], [35.653375797000024, -0.075947865999979], [35.66707579700005, -0.047747865999952], [35.63963658200004, -0.059327244999963], [35.615477989000055, -0.081965149999974], [35.62313658200003, -0.101227244999961], [35.597636582000064, -0.128727244999936], [35.60990834900008, -0.155555406999952], [35.63998658200006, -0.148477244999924], [35.65555566200004, -0.162740705999965], [35.670459633000064, -0.163535954999929], [35.66608658200005, -0.183227244999955], [35.675036582000075, -0.187027244999967], [35.65688658200003, -0.204277244999957], [35.65018658200006, -0.264527244999954], [35.631486582000036, -0.274927244999958], [35.631186582000055, -0.286477244999958], [35.60587579700007, -0.292947865999963], [35.593486582000025, -0.275827244999959], [35.58108658200007, -0.307177244999934], [35.569286582000075, -0.302277244999971], [35.57228658200006, -0.281227244999968], [35.52910179000003, -0.258457222999937], [35.524386582000034, -0.268627244999948], [35.47068658200004, -0.27627724499996], [35.41388658200003, -0.300927244999968]]]}}, {"type": "Feature", "properties": {"area_id": "A26", "county": "Garissa", "sub_county": "Lagdera", "shapeName": "Lagdera"}, "geometry": {"type": "Polygon", "coordinates": [[[39.50267133500006, 0.006304533000048], [39.511256796000055, 0.045342506000054], [39.53410679600006, 0.074642506000032], [39.556356796000046, 0.082742506000045], [39.57255679600007, 0.106242506000058], [39.58985679600005, 0.115342506000047], [39.595456796000065, 0.131692506000036], [39.653156796000076, 0.141542506000064], [39.66981916900005, 0.170183215000066], [39.72093083200008, 0.193286001000047], [39.75090679600004, 0.227242506000039], [39.87520679600004, 0.288842506000037], [39.90035679600004, 0.32004250600005], [39.90015679600003, 0.343192506000037], [39.887956796000026, 0.36469250600004], [39.84958650600004, 0.398487707000072], [39.88295679600003, 0.428342506000035], [39.893956796000055, 0.448792506000075], [39.90905679600007, 0.448542506000024], [39.913909741000055, 0.455927076000023], [39.90416320800006, 0.463262168000028], [39.874363208000034, 0.459562168000048], [39.851413208000054, 0.477662168000052], [39.80044390300003, 0.484524994000026], [39.73156320800007, 0.526612168000042], [39.663863208000066, 0.61516216800004], [39.64576320800006, 0.656862168000032], [39.61376320800008, 0.684362168000064], [39.563963208000075, 0.755762168000047], [39.493208836000065, 0.959953535000068], [39.461921811000025, 0.995885165000061], [39.36126042400008, 0.953948779000029], [39.31359717600003, 0.924772075000021], [39.23707021600006, 0.844155692000072], [39.18056313400007, 0.751749675000042], [39.177762459000064, 0.725566179000054], [39.14783849600008, 0.706003217000045], [39.14216948500007, 0.691177668000023], [39.102473522000025, 0.689375641000026], [39.083951900000045, 0.676933634000022], [39.05366941600005, 0.686088584000061], [39.02687600300004, 0.664966294000067], [39.01019066600003, 0.625220906000038], [38.94075079900006, 0.628409499000043], [38.91123926100005, 0.599842408000029], [38.85774679800005, 0.59937164300004], [38.824894544000074, 0.581257002000029], [38.76586477700005, 0.513426220000042], [38.749871650000046, 0.52510206200003], [38.73503481400007, 0.520169172000067], [38.723200037000026, 0.526071198000068], [38.72196579000007, 0.513394296000058], [38.70376349900005, 0.50793249700007], [38.65876263600006, 0.508053923000034], [38.67698239300006, 0.494958311000062], [38.71063305700005, 0.366364421000071], [38.78797016300007, 0.346748584000068], [38.82603645300003, 0.354462355000067], [38.84310137400007, 0.340328099000033], [38.86976419300004, 0.344536129000062], [38.91734381600003, 0.315345198000045], [38.96603153600006, 0.319693740000048], [39.00282404700005, 0.287464908000061], [39.055223246000025, 0.297701215000075], [39.11049945600007, 0.24637268400005], [39.155879937000066, 0.258002146000024], [39.18297448100003, 0.282537514000069], [39.191539471000056, 0.297961216000033], [39.19402246100003, 0.332293944000071], [39.22121455100006, 0.38194634000007], [39.24533683800007, 0.385507568000037], [39.256376173000035, 0.37797815700003], [39.300308234000056, 0.380450582000037], [39.34863383700008, 0.372252895000031], [39.36987351100004, 0.27630700800006], [39.430863231000046, 0.197935835000067], [39.43379582400007, 0.109675400000071], [39.42533017400007, 0.082611204000045], [39.42215552300007, 0.016965182000035], [39.50267133500006, 0.006304533000048]]]}}, {"type": "Feature", "properties": {"area_id": "A17", "county": "Laikipia", "sub_county": "Laikipia West", "shapeName": "Laikipia East"}, "geometry": {"type": "Polygon", "coordinates": [[[36.25410349400005, 0.183926818000032], [36.277331220000065, 0.149787073000027], [36.288998168000035, 0.113469942000052], [36.256612578000045, 0.058608497000023], [36.26898268000008, 0.021942133000039], [36.256988912000054, -0.019521450999946], [36.26733017000004, -0.018055477999951], [36.273769378000054, 0.002858211000046], [36.29340871200003, 0.013788730000044], [36.30090332100008, 0.005401585000072], [36.30449676500007, 0.018090211000072], [36.34753799500004, 0.033832897000025], [36.352829934000056, 0.018258311000068], [36.38966401400006, 0.029698636000035], [36.39054489100005, 0.036372960000051], [36.401775360000045, 0.031126272000051], [36.40035247800006, 0.038243803000057], [36.42635296700007, 0.046482963000074], [36.40142345400005, 0.057871414000033], [36.42304992700008, 0.085223332000055], [36.44591522200005, 0.095205151000073], [36.465232849000074, 0.140240267000024], [36.51150512700008, 0.089085028000056], [36.52349090600006, 0.050442901000054], [36.57723236100003, 0.070330001000059], [36.603370667000036, 0.005459962000032], [36.637138367000034, 0.016927186000032], [36.63313293500005, 0.03684391500002], [36.65120569900006, 0.040277873000036], [36.660379791000025, 0.050474223000037], [36.68627484700005, 0.106844476000049], [36.70853042600004, 0.122195959000067], [36.71925608300006, 0.140218], [36.73915100100004, 0.188161287000071], [36.79230308600006, 0.229958095000029], [36.76128387500006, 0.264150947000076], [36.78284072900004, 0.278584749000061], [36.769123077000074, 0.307223946000022], [36.77518844600007, 0.319794685000033], [36.735393524000074, 0.367268950000039], [36.78022384600007, 0.379562631000056], [36.77884292600004, 0.362459406000028], [36.82787704500004, 0.358861625000031], [36.83046340900006, 0.386714250000068], [36.847740173000034, 0.388454437000064], [36.823108673000036, 0.422764003000054], [36.836086273000035, 0.446956635000049], [36.82150268600003, 0.488441825000052], [36.81202697800006, 0.476410002000023], [36.77494939200005, 0.480851660000042], [36.752637863000075, 0.472940741000059], [36.751274109000065, 0.458937630000037], [36.742210388000046, 0.456562020000035], [36.74600696600004, 0.441713564000054], [36.70845127100006, 0.437332645000026], [36.70335197500003, 0.426838073000056], [36.67251815800006, 0.420896679000066], [36.64569854700005, 0.362938702000065], [36.632930756000064, 0.355274945000076], [36.59078598000008, 0.421569556000065], [36.59696960400004, 0.437502444000074], [36.563320160000046, 0.548159719000068], [36.58843612700008, 0.634814620000043], [36.40495988600003, 0.71914079000004], [36.34745349000008, 0.661957441000027], [36.289100647000055, 0.646683216000042], [36.277959665000026, 0.632964817000072], [36.29412460300006, 0.56638932200002], [36.229220344000055, 0.421904725000047], [36.22745402400005, 0.398567043000071], [36.259432564000065, 0.37604867500005], [36.261000833000026, 0.342900117000056], [36.245592540000075, 0.32964436900005], [36.247754934000056, 0.343046509000033], [36.230897904000074, 0.33575447000004], [36.22603278200006, 0.322514746000024], [36.23999636700006, 0.315428096000062], [36.265058828000065, 0.27793258600002], [36.279662237000025, 0.274052895000068], [36.27926314300004, 0.257890155000041], [36.29175567600004, 0.25451514100007], [36.29612421100006, 0.229938483000069], [36.28798818900003, 0.207278616000053], [36.25410349400005, 0.183926818000032]]]}}, {"type": "Feature", "properties": {"area_id": "A18", "county": "Laikipia", "sub_county": "Laikipia North", "shapeName": "Laikipia North"}, "geometry": {"type": "Polygon", "coordinates": [[[37.36018180900004, 0.255548030000057], [37.38534593600008, 0.276897226000074], [37.39556217200004, 0.302358531000039], [37.39194488500004, 0.355441943000073], [37.379089356000065, 0.364674211000022], [37.37907123600007, 0.380492705000052], [37.353278024000076, 0.414452374000064], [37.34864311200005, 0.44371628500005], [37.36019058200003, 0.477544493000039], [37.359621048000065, 0.502207905000034], [37.36885547600008, 0.512456715000042], [36.863765717000035, 0.572018921000051], [36.86758677100005, 0.597864628000025], [36.88804245000006, 0.610453586000062], [36.89722633400004, 0.631146967000063], [36.907597542000076, 0.632379532000073], [36.91333198600006, 0.662336946000039], [36.92206764300005, 0.661994309000022], [36.93079515900007, 0.744529334000049], [36.91510076700007, 0.729133303000026], [36.90249002500008, 0.741216845000054], [36.86499019000007, 0.73937436600005], [36.84338169500006, 0.796654835000027], [36.83435366500004, 0.802945400000056], [36.81918335000006, 0.85594767300006], [36.793138499000065, 0.871326993000025], [36.75687112600008, 0.860552014000064], [36.73529460700007, 0.829330620000064], [36.674775820000036, 0.814953238000044], [36.484886706000054, 0.814827897000043], [36.48966469000004, 0.84783782300002], [36.47562962000006, 0.838963957000033], [36.40495988600003, 0.71914079000004], [36.58843612700008, 0.634814620000043], [36.563320160000046, 0.548159719000068], [36.59696960400004, 0.437502444000074], [36.59078598000008, 0.421569556000065], [36.632930756000064, 0.355274945000076], [36.64569854700005, 0.362938702000065], [36.67251815800006, 0.420896679000066], [36.70335197500003, 0.426838073000056], [36.70845127100006, 0.437332645000026], [36.74600696600004, 0.441713564000054], [36.742210388000046, 0.456562020000035], [36.751274109000065, 0.458937630000037], [36.752637863000075, 0.472940741000059], [36.77494939200005, 0.480851660000042], [36.81202697800006, 0.476410002000023], [36.82150268600003, 0.488441825000052], [36.836086273000035, 0.446956635000049], [36.823108673000036, 0.422764003000054], [36.847740173000034, 0.388454437000064], [36.83046340900006, 0.386714250000068], [36.82787704500004, 0.358861625000031], [36.77884292600004, 0.362459406000028], [36.78022384600007, 0.379562631000056], [36.735393524000074, 0.367268950000039], [36.77518844600007, 0.319794685000033], [36.769123077000074, 0.307223946000022], [36.78284072900004, 0.278584749000061], [36.76128387500006, 0.264150947000076], [36.79230308600006, 0.229958095000029], [36.73915100100004, 0.188161287000071], [36.72001533500003, 0.143725564000022], [36.806343079000044, 0.132963806000021], [36.808082581000065, 0.11640568100006], [36.89522457100003, 0.109711875000073], [36.903517055000066, 0.087644399000055], [36.900801595000075, 0.044099043000074], [36.91459782900006, 0.028954749000036], [36.91013272600003, 0.012079607000032], [36.921186447000025, -0.000130595999963], [36.98124898300006, -0.012933166999971], [37.00024414100005, 0.021505748000038], [36.98358535800003, 0.026718250000044], [36.97075653100006, 0.066303119000054], [37.04097311800007, 0.093832766000048], [37.05550566200003, 0.073345440000026], [37.05214500400007, 0.063967497000021], [37.108455658000025, 0.067650683000068], [37.10891260400007, 0.038475489000064], [37.129503251000074, 0.038386935000062], [37.201661682000065, 0.06166156200004], [37.232156118000034, 0.080677206000075], [37.23426437400008, 0.104494750000072], [37.24633566600005, 0.108868329000074], [37.25233840900006, 0.096978374000059], [37.281263351000064, 0.130176492000032], [37.28248977700008, 0.152153283000075], [37.308050156000036, 0.178407829000037], [37.34079647100003, 0.184654575000025], [37.33625335700003, 0.193916589000025], [37.348189545000025, 0.19541134800005], [37.35645294200003, 0.237886029000038], [37.36639022800006, 0.248928502000069], [37.36018180900004, 0.255548030000057]]]}}, {"type": "Feature", "properties": {"area_id": "A16", "county": "Laikipia", "sub_county": "Laikipia East", "shapeName": "Laikipia West"}, "geometry": {"type": "Polygon", "coordinates": [[[37.10891260400007, 0.038475489000064], [37.108455658000025, 0.067650683000068], [37.05214500400007, 0.063967497000021], [37.05550566200003, 0.073345440000026], [37.04097311800007, 0.093832766000048], [36.97075653100006, 0.066303119000054], [36.98358535800003, 0.026718250000044], [37.00024414100005, 0.021505748000038], [36.98124898300006, -0.012933166999971], [36.95605087300004, -0.011382502999936], [36.921186447000025, -0.000130595999963], [36.91013272600003, 0.012079607000032], [36.91459782900006, 0.028954749000036], [36.900801595000075, 0.044099043000074], [36.903517055000066, 0.087644399000055], [36.89522457100003, 0.109711875000073], [36.808082581000065, 0.11640568100006], [36.806343079000044, 0.132963806000021], [36.72001533500003, 0.143725564000022], [36.70853042600004, 0.122195959000067], [36.68627484700005, 0.106844476000049], [36.660379791000025, 0.050474223000037], [36.65120569900006, 0.040277873000036], [36.63313293500005, 0.03684391500002], [36.650539398000035, -0.013711100999956], [36.58228556300003, -0.019136370999945], [36.55566310900008, -0.052532079999935], [36.55131530800003, -0.067144728999949], [36.560585022000055, -0.073902226999962], [36.55510330200008, -0.08787456899995], [36.561843872000054, -0.086484975999952], [36.57254028300008, -0.101256668999952], [36.63504409800004, -0.10424691399993], [36.65633773800005, -0.150761663999958], [36.75220108100007, -0.11804365699993], [36.76535797100007, -0.106752752999967], [36.76839447000003, -0.111768185999949], [36.83099746700003, -0.101644567999926], [36.831542969000054, -0.132294252999941], [36.86073732400007, -0.140872814999966], [36.871606445000054, -0.174019535999946], [36.85317007700007, -0.194307777999938], [36.839671665000026, -0.195389129999967], [36.85657119800004, -0.252555936999954], [36.871468882000045, -0.245027596999932], [36.87948989900008, -0.256104677999929], [36.987442017000035, -0.293131469999935], [36.998298645000034, -0.269039451999959], [36.988590240000065, -0.25433438999994], [37.01020213500004, -0.24007112399994], [37.019378662000065, -0.173661126999946], [37.00788593300007, -0.147021948999964], [36.98570633000003, -0.132719873999974], [36.978029251000066, -0.068623158999969], [37.025302887000066, -0.046947750999948], [37.05222702000003, -0.00666350299997], [37.06888961800007, -0.00082718699997], [37.07859662200008, 0.015436302000069], [37.079421997000054, -0.00265246999993], [37.11265182500006, -0.035453315999973], [37.12063437000006, -0.018374702999949], [37.08807998100008, 0.022774041000048], [37.10891260400007, 0.038475489000064]]]}}, {"type": "Feature", "properties": {"area_id": "A11", "county": "Nakuru", "sub_county": "Naivasha", "shapeName": "Naivasha"}, "geometry": {"type": "Polygon", "coordinates": [[[36.099886378000065, -0.673650947999931], [36.13897579700006, -0.70974786599993], [36.15357579700003, -0.712647865999941], [36.161817186000064, -0.744987022999965], [36.19187579700008, -0.762747865999927], [36.18437579700003, -0.775447865999979], [36.19166434700003, -0.784725777999938], [36.18928235100003, -0.804624796999974], [36.159058567000045, -0.836579245999928], [36.18607579700006, -0.911447865999946], [36.194875797000066, -0.913047865999943], [36.20607579700004, -0.931347865999953], [36.26407579700003, -0.912747865999961], [36.33587579700003, -1.043547865999926], [36.49320133100008, -1.119001706999939], [36.53675378300005, -1.152578333999941], [36.54510267100005, -1.123867271999927], [36.56989288300008, -1.100517510999964], [36.59114780700003, -1.061980708999954], [36.58844261100006, -1.036322950999931], [36.59998703000008, -0.991446405999966], [36.58733226900006, -0.975795262999952], [36.57946027500003, -0.945466241999952], [36.56168230700007, -0.936602469999968], [36.572650002000046, -0.929668457999981], [36.55423560100007, -0.924161891999972], [36.54426909700004, -0.905892814999959], [36.552588858000036, -0.852561091999974], [36.561509313000045, -0.839815742999974], [36.52100838500007, -0.708398149999937], [36.54415973700003, -0.694603161999964], [36.521233220000056, -0.650907969999935], [36.52620491400006, -0.642543659999944], [36.51208744000007, -0.608924692999949], [36.50609970100004, -0.620890974999952], [36.48970558700006, -0.622386775999928], [36.48327579700003, -0.634947865999948], [36.48748958200008, -0.641823679999959], [36.47747579700007, -0.68154786599996], [36.449675797000054, -0.683647865999944], [36.43447579700006, -0.670147865999979], [36.429475797000066, -0.634647865999966], [36.42037579700008, -0.634947865999948], [36.407775797000056, -0.659147865999955], [36.38472426100003, -0.66643813099995], [36.36727579700005, -0.684597865999933], [36.37147579700007, -0.704747865999934], [36.35167579700004, -0.713147865999929], [36.35142579700005, -0.723447865999958], [36.28197579700003, -0.72434786599996], [36.274025797000036, -0.742947865999952], [36.22817579700006, -0.709047865999935], [36.23087579700007, -0.680847865999965], [36.28122579700005, -0.663547865999931], [36.268175797000026, -0.650247865999972], [36.263675797000076, -0.659647865999943], [36.12447579700006, -0.658147865999979], [36.099886378000065, -0.673650947999931]]]}}, {"type": "Feature", "properties": {"area_id": "A02", "county": "Narok", "sub_county": "Narok East", "shapeName": "Narok East"}, "geometry": {"type": "Polygon", "coordinates": [[[36.33147371700005, -1.037254646999941], [36.26407579700003, -0.912747865999961], [36.20607579700004, -0.931347865999953], [36.194875797000066, -0.913047865999943], [36.18607579700006, -0.911447865999946], [36.18714539000007, -0.902068757999928], [36.144115448000036, -0.900942817999976], [36.14124969000005, -0.90697174099995], [36.121647248000045, -0.888199863999944], [36.10787849800005, -0.891704361999928], [36.107863397000074, -0.841879047999953], [36.04239066900004, -0.906607851999979], [36.038333427000055, -0.925142908999931], [36.00085046100003, -0.972657161999962], [35.98069303400007, -1.026836514999957], [35.99146202500003, -1.051785353999946], [35.95638476400006, -1.099290405999966], [35.92141110600005, -1.176699162999967], [35.885102654000036, -1.213775171999941], [35.90507589600003, -1.220530202999953], [35.91128955800008, -1.245683013999951], [35.92227948100003, -1.251136932999941], [35.91902536900005, -1.268968427999937], [35.93590152400003, -1.27389308599993], [35.941409511000074, -1.29580561299997], [35.95141798100008, -1.30194956899993], [35.940320944000064, -1.305743198999949], [35.933256920000076, -1.327134523999973], [35.91617610900005, -1.327090873999964], [35.924385673000074, -1.352507767999953], [35.97906688300003, -1.394301543999973], [36.00267259900005, -1.385438973999953], [36.01507161200004, -1.391115269999943], [36.02315943100007, -1.399812462999932], [36.01855193500006, -1.414344963999952], [36.037022354000044, -1.437874834999946], [36.056640508000044, -1.441733192999948], [36.06735603800007, -1.470380987999931], [36.347740173000034, -1.172504186999959], [36.33147371700005, -1.037254646999941]]]}}, {"type": "Feature", "properties": {"area_id": "A00", "county": "Narok", "sub_county": "Narok North", "shapeName": "Narok North"}, "geometry": {"type": "Polygon", "coordinates": [[[36.09757688900004, -0.640809462999925], [36.029082481000046, -0.67947677899997], [36.01225151600005, -0.663919670999974], [35.94680815900006, -0.713756218999947], [35.93139883600003, -0.705745438999941], [35.93047579700004, -0.694447865999962], [35.893175797000026, -0.647147865999955], [35.878374664000034, -0.648286842999937], [35.87664835800007, -0.638468796999973], [35.91698169600005, -0.635946194999974], [35.95159025100003, -0.666417957999954], [35.983319960000074, -0.631546428999968], [35.94811403700004, -0.557986940999967], [35.90527579700006, -0.544147865999946], [35.890075797000065, -0.523547865999944], [35.83348439200006, -0.493003959999953], [35.83779866500004, -0.467798130999938], [35.815472191000026, -0.476657174999957], [35.81287579700006, -0.456447865999962], [35.80187579700004, -0.454247865999946], [35.77436293100004, -0.53801744499998], [35.74134764300004, -0.530850605999944], [35.712487202000034, -0.553867128999968], [35.71286708800005, -0.577966670999956], [35.69369835300006, -0.602355229999944], [35.68246682900008, -0.651945409999939], [35.64681382500004, -0.702386708999938], [35.600132735000045, -0.657444668999972], [35.587278035000054, -0.58723355199993], [35.498107910000044, -0.613403319999975], [35.508207844000026, -0.639627555999937], [35.604984752000064, -0.73894409899998], [35.730320713000026, -0.741922165999938], [35.75092691000003, -0.804819124999938], [35.736467221000055, -0.865655242999935], [35.74417546900003, -0.931598550999979], [35.73620981900007, -0.979506224999966], [35.74092771900007, -1.025268137999944], [35.754078098000036, -1.042835728999933], [35.69791994900004, -1.054305863999957], [35.697724641000036, -1.07229949799995], [35.72612968100003, -1.096491975999925], [35.737176850000026, -1.134281186999942], [35.76001558100006, -1.151164460999951], [35.76011427100008, -1.166052141999955], [35.78212171400003, -1.181473549999964], [35.81170870400007, -1.186845939999955], [35.84165532800006, -1.229462392999949], [35.86074311200008, -1.214611426999966], [35.876866290000066, -1.219711023999935], [35.92141110600005, -1.176699162999967], [35.95638476400006, -1.099290405999966], [35.99146202500003, -1.051785353999946], [35.98069303400007, -1.026836514999957], [36.00085046100003, -0.972657161999962], [36.038333427000055, -0.925142908999931], [36.04239066900004, -0.906607851999979], [36.079388178000045, -0.863948235999942], [36.107863397000074, -0.841879047999953], [36.10787849800005, -0.891704361999928], [36.121647248000045, -0.888199863999944], [36.14124969000005, -0.90697174099995], [36.144115448000036, -0.900942817999976], [36.18714539000007, -0.902068757999928], [36.159058567000045, -0.836579245999928], [36.18928235100003, -0.804624796999974], [36.19166434700003, -0.784725777999938], [36.18437579700003, -0.775447865999979], [36.19187579700008, -0.762747865999927], [36.161817186000064, -0.744987022999965], [36.15357579700003, -0.712647865999941], [36.13897579700006, -0.70974786599993], [36.099886378000065, -0.673650947999931], [36.09757688900004, -0.640809462999925]]]}}, {"type": "Feature", "properties": {"area_id": "A01", "county": "Narok", "sub_county": "Narok South", "shapeName": "Narok South"}, "geometry": {"type": "Polygon", "coordinates": [[[35.43295788000006, -0.726835413999936], [35.48083723800005, -0.764095912999949], [35.54649541600003, -0.78757337299993], [35.51972198500005, -0.811395853999954], [35.53434936200006, -0.806084144999943], [35.55607092200006, -0.818854827999928], [35.532078779000074, -0.844288264999932], [35.540647275000026, -0.859602888999973], [35.53442864300007, -0.869311008999944], [35.546376493000025, -0.882236888999955], [35.50962537800007, -0.917350338999938], [35.50443362800007, -0.935869820999926], [35.568268052000064, -0.999598720999927], [35.56709884000003, -1.027969817999974], [35.54975114600006, -1.064626947999955], [35.56159542000006, -1.097967402999927], [35.58024147200007, -1.115370527999971], [35.56712468000006, -1.132532097999956], [35.60868379500005, -1.178050483999925], [35.67536824800004, -1.276940515999968], [35.60333017700003, -1.363621701999932], [35.585007639000025, -1.421232226999962], [35.70716598200005, -1.522661193999966], [35.745575220000035, -1.568632107999974], [35.767000508000024, -1.625098937999951], [35.78268545000003, -1.636113608999949], [35.761043925000024, -1.700362943999949], [35.742552697000065, -1.721667025999977], [35.74330870000006, -1.753653963999966], [35.67978765200007, -1.744733564999933], [35.52757383000005, -1.838904440999954], [36.00013299500006, -2.10458073999996], [36.00013732900004, -2.081845878999957], [36.02666091900005, -2.08206415199993], [36.02095985400007, -2.035453468999947], [36.03614578200006, -2.004312467999966], [36.04111794200003, -1.957993699999975], [36.036062241000025, -1.947284876999959], [36.042391844000065, -1.936645437999971], [36.03063011200004, -1.91347867199994], [36.04326629600007, -1.904610692999938], [36.025804520000065, -1.889120220999928], [36.03195190400004, -1.885854005999931], [36.035375378000026, -1.892428615999961], [36.036523819000024, -1.877675532999945], [36.05133311000003, -1.869248727999945], [36.043236415000024, -1.828559358999939], [36.03770885800003, -1.820824897999955], [36.02970848000007, -1.826090652999937], [36.028186815000026, -1.809626881999975], [36.01659620800007, -1.807049421999977], [36.03063570100005, -1.780644024999958], [36.019943237000064, -1.774488090999967], [36.03056716900005, -1.758182465999937], [36.035619100000076, -1.760754942999938], [36.03555806500003, -1.740453321999951], [36.04869979700004, -1.728965109999933], [36.042935372000045, -1.708683937999979], [36.04801750200005, -1.702318905999959], [36.05532455500003, -1.70759391799993], [36.06493317600007, -1.696509741999932], [36.04618285400005, -1.650220636999961], [36.05920904900006, -1.622475702999964], [36.05249977100004, -1.616361438999945], [36.06506185400008, -1.613053640999965], [36.086210305000066, -1.573442264999926], [36.05869865500006, -1.496090352999943], [36.04916000400004, -1.489948987999981], [36.06735603800007, -1.470380987999931], [36.06815370800007, -1.458396734999951], [36.056640508000044, -1.441733192999948], [36.037022354000044, -1.437874834999946], [36.01855193500006, -1.414344963999952], [36.02315943100007, -1.399812462999932], [36.01507161200004, -1.391115269999943], [36.00267259900005, -1.385438973999953], [35.97906688300003, -1.394301543999973], [35.924385673000074, -1.352507767999953], [35.91617610900005, -1.327090873999964], [35.933256920000076, -1.327134523999973], [35.940320944000064, -1.305743198999949], [35.95141798100008, -1.30194956899993], [35.941409511000074, -1.29580561299997], [35.93590152400003, -1.27389308599993], [35.91902536900005, -1.268968427999937], [35.92227948100003, -1.251136932999941], [35.91128955800008, -1.245683013999951], [35.90507589600003, -1.220530202999953], [35.86074311200008, -1.214611426999966], [35.84165532800006, -1.229462392999949], [35.81170870400007, -1.186845939999955], [35.78212171400003, -1.181473549999964], [35.76011427100008, -1.166052141999955], [35.76001558100006, -1.151164460999951], [35.737176850000026, -1.134281186999942], [35.72612968100003, -1.096491975999925], [35.697724641000036, -1.07229949799995], [35.69791994900004, -1.054305863999957], [35.754078098000036, -1.042835728999933], [35.74092771900007, -1.025268137999944], [35.73620981900007, -0.979506224999966], [35.74417546900003, -0.931598550999979], [35.736467221000055, -0.865655242999935], [35.75092691000003, -0.804819124999938], [35.730320713000026, -0.741922165999938], [35.604984752000064, -0.73894409899998], [35.508207844000026, -0.639627555999937], [35.498107910000044, -0.613403319999975], [35.39717865000006, -0.644234209999979], [35.43295788000006, -0.726835413999936]]]}}, {"type": "Feature", "properties": {"area_id": "A03", "county": "Narok", "sub_county": "Narok West", "shapeName": "Narok West"}, "geometry": {"type": "Polygon", "coordinates": [[[35.35196873800004, -0.969453466999937], [35.35069783500006, -0.977117031999967], [35.34608840900006, -0.969903925999972], [35.33976991800006, -0.977425276999952], [35.33364028900007, -0.97426775699995], [35.31243813000003, -0.998973639999974], [35.25139427200003, -1.026248126999974], [35.23824610100007, -1.048107053999956], [35.23117325800007, -1.041864355999962], [35.23178777800007, -1.05919552499995], [35.21914003200004, -1.062446762999969], [35.20991433800003, -1.08353826299998], [35.21411741500003, -1.090674029999946], [35.20317961600006, -1.096308877999945], [35.19158566400006, -1.080282288999967], [35.176255543000025, -1.077067737999926], [35.17081684500005, -1.08887244999994], [35.17687595700005, -1.101393220999967], [35.15974272600005, -1.112785808999945], [35.15981541300005, -1.125531942999942], [35.140562067000076, -1.139878124999939], [35.11531801800004, -1.139010747999976], [35.10856318200007, -1.148838219999959], [35.09640759300004, -1.139526960999945], [35.09445804500007, -1.155124868999962], [35.08378883700004, -1.158519694999939], [35.036740801000064, -1.213448748999951], [35.03355324300003, -1.229943550999963], [35.03982078900003, -1.238609428999951], [35.03177264000004, -1.251529084999959], [35.043301443000075, -1.269059278999976], [35.03469935600003, -1.288719648999972], [35.04102153200006, -1.294603176999942], [35.028589124000064, -1.318079499999953], [34.99276734500006, -1.326001022999947], [34.996612766000055, -1.332810632999951], [34.989317147000065, -1.341361338999945], [34.99874043700004, -1.377112459999978], [35.01763519900004, -1.378329243999929], [35.022374383000056, -1.389971686999957], [35.04820841900005, -1.405387979999944], [35.053452278000066, -1.429162719999965], [35.063849823000055, -1.433574114999942], [35.05876293600005, -1.44987490699998], [35.04531490000005, -1.450293658999954], [35.042640378000044, -1.464879202999953], [35.03298812700007, -1.465512667999974], [35.03680639500004, -1.491775076999943], [35.01627265400003, -1.517279908999967], [35.02501577800007, -1.520443385999954], [35.02145974900003, -1.530015901999946], [35.02853101100004, -1.538988372999938], [35.020152575000054, -1.539067854999928], [35.02444985500006, -1.546535228999971], [35.01740168200007, -1.550535336999928], [35.52757383000005, -1.838904440999954], [35.67978765200007, -1.744733564999933], [35.74330870000006, -1.753653963999966], [35.742552697000065, -1.721667025999977], [35.761043925000024, -1.700362943999949], [35.78268545000003, -1.636113608999949], [35.767000508000024, -1.625098937999951], [35.745575220000035, -1.568632107999974], [35.70716598200005, -1.522661193999966], [35.585007639000025, -1.421232226999962], [35.60333017700003, -1.363621701999932], [35.67536824800004, -1.276940515999968], [35.60868379500005, -1.178050483999925], [35.56712468000006, -1.132532097999956], [35.58024147200007, -1.115370527999971], [35.56159542000006, -1.097967402999927], [35.54975114600006, -1.064626947999955], [35.56709884000003, -1.027969817999974], [35.568268052000064, -0.999598720999927], [35.50443362800007, -0.935869820999926], [35.50962537800007, -0.917350338999938], [35.546376493000025, -0.882236888999955], [35.53442864300007, -0.869311008999944], [35.540647275000026, -0.859602888999973], [35.532078779000074, -0.844288264999932], [35.55607092200006, -0.818854827999928], [35.53434936200006, -0.806084144999943], [35.48705482500003, -0.829644738999946], [35.477125295000064, -0.853152739999928], [35.46133995100007, -0.862328975999958], [35.455460548000076, -0.882651790999944], [35.438606262000064, -0.886363625999934], [35.44096183700003, -0.892660616999933], [35.423907471000064, -0.904520439999942], [35.421327817000076, -0.943899927999951], [35.377956390000065, -0.95943473799997], [35.37012826200004, -0.97192961199994], [35.35196873800004, -0.969453466999937]]]}}, {"type": "Feature", "properties": {"area_id": "A14", "county": "Nakuru", "sub_county": "Njoro", "shapeName": "Njoro"}, "geometry": {"type": "Polygon", "coordinates": [[[36.07817579700003, -0.524447865999946], [36.06617579700003, -0.398147865999931], [36.05797579700004, -0.403147865999927], [36.04207579700005, -0.375447865999945], [36.020325797000055, -0.364497865999965], [35.998377352000034, -0.296249581999973], [35.972175797000034, -0.323547865999956], [35.86967579700007, -0.279397865999954], [35.869475797000064, -0.315947865999931], [35.886575797000035, -0.320847865999951], [35.872675797000056, -0.358547865999924], [35.85327579700004, -0.368547865999972], [35.87307579700007, -0.376347865999946], [35.836675797000055, -0.432447865999961], [35.84217579700004, -0.445447865999938], [35.83348439200006, -0.493003959999953], [35.890075797000065, -0.523547865999944], [35.90527579700006, -0.544147865999946], [35.94811403700004, -0.557986940999967], [35.98117579700005, -0.626047865999965], [35.95159025100003, -0.666417957999954], [35.91698169600005, -0.635946194999974], [35.87664835800007, -0.638468796999973], [35.878374664000034, -0.648286842999937], [35.893175797000026, -0.647147865999955], [35.93047579700004, -0.694447865999962], [35.93139883600003, -0.705745438999941], [35.94680815900006, -0.713756218999947], [36.01225151600005, -0.663919670999974], [36.029082481000046, -0.67947677899997], [36.09757688900004, -0.640809462999925], [36.062675797000054, -0.587047865999978], [36.05457579700004, -0.560347865999972], [36.07287579700005, -0.554247865999969], [36.06687579700008, -0.530747865999956], [36.07817579700003, -0.524447865999946]]]}}, {"type": "Feature", "properties": {"area_id": "A15", "county": "Nakuru", "sub_county": "Rongai", "shapeName": "Rongai"}, "geometry": {"type": "Polygon", "coordinates": [[[36.053875797000046, -0.24914786599993], [36.055575797000074, -0.167947865999963], [36.02487579700005, -0.151447865999955], [36.03062579700003, -0.130147865999959], [36.020245087000035, -0.126769020999973], [36.018475797000065, -0.085747865999963], [36.045575797000026, -0.078547865999951], [36.04797579700005, -0.086747865999939], [36.05797579700004, -0.072197865999954], [36.05997579700005, -0.097247865999975], [36.074975797000036, -0.116947865999975], [36.07647579700006, -0.082247865999932], [36.085739954000076, -0.085085874999947], [36.08617579700007, -0.061947865999969], [36.116627866000044, -0.070988339999928], [36.12217579700007, -0.051447865999933], [36.12857579700005, -0.053447865999942], [36.123775797000064, -0.045147865999979], [36.13047579700003, -0.028097865999939], [36.152875797000036, -0.027547865999964], [36.175075797000034, 0.005052134000039], [36.17707579700004, 0.060352134000027], [36.19082579700006, 0.104352134000067], [36.22417579700004, 0.102852134000045], [36.24457579700004, 0.143052134000072], [36.221675797000046, 0.183652134000056], [36.20617579700007, 0.188852134000058], [36.19910052300003, 0.202122928000051], [36.14827579700005, 0.186752134000074], [36.12812579700005, 0.060502134000046], [36.10632579700007, 0.062502134000056], [36.11357579700007, 0.006852134000042], [36.09367579700006, -0.009947865999948], [36.055575797000074, 0.004552134000051], [36.04277579700005, 0.02075213400002], [36.00767579700005, 0.032252134000032], [36.00037579700006, 0.060352134000027], [35.965675797000074, 0.059252134000076], [35.961075797000035, 0.088552134000054], [35.94067579700004, 0.097202134000042], [35.92977579700005, 0.069752134000055], [35.978216004000046, 0.016936670000064], [35.94817579700003, -0.051047865999976], [35.91847579700004, -0.079647865999959], [35.90037579700004, -0.046647865999944], [35.89447579700004, -0.049747865999962], [35.87706665400003, -0.033559271999934], [35.82037751000007, -0.115744098999926], [35.80627579700007, -0.096847865999962], [35.790475797000056, -0.110047865999945], [35.785627359000046, -0.169579510999938], [35.830975797000065, -0.195147865999957], [35.81262579700007, -0.211197865999964], [35.804475797000066, -0.240247865999947], [35.857775797000045, -0.260747865999974], [35.85982579700004, -0.277797865999958], [35.87727579700004, -0.277247865999925], [35.95052579700007, -0.317547865999927], [35.95697579700004, -0.313147865999952], [35.972175797000034, -0.323547865999956], [35.98727579700005, -0.303247865999936], [36.00873968600007, -0.294253731999959], [36.01137579700003, -0.274347865999971], [36.024975797000025, -0.27774786599997], [36.02582579700004, -0.271797865999929], [36.04168542900004, -0.270052397999962], [36.04337579700007, -0.256147865999935], [36.053875797000046, -0.24914786599993]]]}}]}